[{"OBJECT_NAME":"STARLINK-2361","OBJECT_ID":"2021-021AT","EPOCH":"2026-03-09T17:04:09.940224","MEAN_MOTION":15.30175875,"ECCENTRICITY":0.00013529,"INCLINATION":53.1601,"RA_OF_ASC_NODE":255.2953,"ARG_OF_PERICENTER":53.482,"MEAN_ANOMALY":306.6305,"EPHEMERIS_TYPE":0,"CLASSIFICATION_TYPE":"U","NORAD_CAT_ID":47901,"ELEMENT_SET_NO":999,"REV_AT_EPOCH":27642,"BSTAR":-0.00017566341,"MEAN_MOTION_DOT":-5.554e-5,"MEAN_MOTION_DDOT":0},{"OBJECT_NAME":"SCS-01 B","OBJECT_ID":"2025-100B","EPOCH":"2026-03-09T21:49:11.508672","MEAN_MOTION":15.3317485,"ECCENTRICITY":0.00088698,"INCLINATION":97.3706,"RA_OF_ASC_NODE":145.9041,"ARG_OF_PERICENTER":288.6157,"MEAN_ANOMALY":71.4122,"EPHEMERIS_TYPE":0,"CLASSIFICATION_TYPE":"U","NORAD_CAT_ID":63983,"ELEMENT_SET_NO":999,"REV_AT_EPOCH":4567,"BSTAR":0.00098809397,"MEAN_MOTION_DOT":0.00031724,"MEAN_MOTION_DDOT":0}]
